STARLINK-5645           
1 55429U 23014AQ  26003.09274580  .00001156  00000+0  10468-3 0  9995
2 55429  69.9990 249.9585 0002512 264.9985  95.0887 14.98327359161730
STARLINK-5642           
1 55430U 23014AR  26003.15138050  .00001043  00000+0  95230-4 0  9991
2 55430  69.9999 269.6201 0002862 266.9155  93.1676 14.98331091161254
STARLINK-5643           
1 55431U 23014AS  26003.10109224  .00000784  00000+0  73528-4 0  9995
2 55431  69.9986 249.9871 0002547 269.6636  90.4231 14.98330953161735
STARLINK-5637           
1 55432U 23014AT  26003.09313410 -.00000330  00000+0 -19870-4 0  9997
2 55432  69.9994 269.8194 0002819 262.8937  97.1901 14.98329098161247
STARLINK-5570           
1 55433U 23014AU  26003.48100098  .00001650  00000+0  14601-3 0  9997
2 55433  69.9993 268.7649 0002945 256.1309 103.9523 14.98328566161301
STARLINK-5621           
1 55434U 23014AV  26003.16807401  .00004119  00000+0  35278-3 0  9991
2 55434  70.0011 269.6793 0002573 260.5728  99.5140 14.98336350161256
STARLINK-5626           
1 55435U 23014AW  26003.15972336  .00000752  00000+0  70821-4 0  9994
2 55435  69.9995 269.6510 0002467 266.8193  93.2684 14.98334182161254
STARLINK-5640           
1 55436U 23014AX  26003.17224961 -.00000106  00000+0 -11073-5 0  9991
2 55436  69.9997 269.6934 0002519 250.1543 109.9345 14.98332039161258
STARLINK-5074           
1 55438U 23014AZ  26003.35536132  .00000324  00000+0  34930-4 0  9995
2 55438  69.9984 229.0105 0001684 272.7515  87.3451 14.98332289162274
STARLINK-5634           
1 55439U 23014BA  26003.44346441 -.00001296  00000+0 -10082-3 0  9990
2 55439  69.9990 269.0355 0003318 267.7399  92.3380 14.98325861161299
APSTAR-6E SPS           
1 55447U 23005C   26002.88021869  .00000031  00000+0  20820-2 0  9994
2 55447  28.6297 186.6942 2272323 204.6547 142.5942  7.60551335 81287
STARLINK-5699           
1 55449U 23015A   26003.24025858 -.00000418  00000+0 -15811-4 0  9997
2 55449  43.0055 322.0615 0001599 266.7440  93.3220 15.02564615161842
STARLINK-5686           
1 55450U 23015B   26003.24361841 -.00000394  00000+0 -14052-4 0  9993
2 55450  43.0087 322.0837 0002010 249.4545 110.6082 15.02519048161847
STARLINK-5656           
1 55451U 23015C   26003.23693560 -.00000391  00000+0 -13882-4 0  9996
2 55451  43.0069 322.0387 0001512 262.8440  97.2231 15.02536530160904
STARLINK-5683           
1 55452U 23015D   26003.23249751  .00000051  00000+0  18871-4 0  9990
2 55452  43.0038 322.0032 0000905 279.8537  80.2204 15.02535448160907
STARLINK-5684           
1 55453U 23015E   26003.29563930 -.00004131  00000+0 -29076-3 0  9998
2 55453  43.0054 321.6174 0001262 265.3310  94.7389 15.02553850160916
STARLINK-5636           
1 55454U 23015F   26003.22250398  .00000462  00000+0  49308-4 0  9995
2 55454  43.0048 321.9180 0001279 273.0292  87.0404 15.02536586160902
STARLINK-5680           
1 55455U 23015G   26003.23582554 -.00000218  00000+0 -10573-5 0  9993
2 55455  43.0067 322.0267 0001602 259.8086 100.2576 15.02533741160903
STARLINK-5058           
1 55456U 23015H   26003.22361610  .00000060  00000+0  19536-4 0  9991
2 55456  43.0055 321.9357 0001289 263.4148  96.6547 15.02536896160900
STARLINK-5682           
1 55457U 23015J   26003.29231344  .00000124  00000+0  24241-4 0  9999
2 55457  43.0052 321.5943 0001125 278.3277  81.7438 15.02536172160914
STARLINK-5020           
1 55458U 23015K   26003.21251508  .00000896  00000+0  81354-4 0  9990
2 55458  43.0018 321.8518 0001215 262.3288  97.7416 15.02536124160902
STARLINK-5669           
1 55459U 23015L   26003.28343666  .00001834  00000+0  15082-3 0  9992
2 55459  43.0049 321.5264 0001163 264.0159  96.0550 15.02536408160917
STARLINK-5678           
1 55460U 23015M   26003.21362451 -.00000240  00000+0 -26813-5 0  9998
2 55460  43.0048 321.8626 0001407 267.8307  92.2374 15.02542747160904
STARLINK-5646           
1 55461U 23015N   26003.22028824 -.00000182  00000+0  16366-5 0  9999
2 55461  43.0052 321.9120 0001172 271.9012  88.1696 15.02533100160902
STARLINK-5673           
1 55462U 23015P   26003.20252315 -.00001040  00000+0 -61907-4 0  9997
2 55462  43.0039 321.7771 0001342 262.0189  98.0501 15.02529838160901
STARLINK-5677           
1 55463U 23015Q   26003.27455626  .00000610  00000+0  60259-4 0  9994
2 55463  43.0050 321.4606 0001047 278.7495  81.3228 15.02534528160919
STARLINK-5676           
1 55464U 23015R   26003.26234262  .00002224  00000+0  17965-3 0  9993
2 55464  43.0054 321.3668 0001301 263.5081  96.5613 15.02535213160915
STARLINK-5674           
1 55465U 23015S   26003.19920632  .00000578  00000+0  57851-4 0  9998
2 55465  43.0034 321.7555 0001828 303.1090  56.9577 15.02528314160900
STARLINK-5628           
1 55466U 23015T   26003.24902551 -.00000130  00000+0  54858-5 0  9995
2 55466  43.0062 321.2640 0001618 261.7201  98.3458 15.02537802160913
STARLINK-5679           
1 55467U 23015U   26003.27232955  .00002599  00000+0  20739-3 0  9992
2 55467  43.0040 321.4431 0001294 270.8839  89.1855 15.02534042160910
STARLINK-5672           
1 55468U 23015V   26003.19365368 -.00001042  00000+0 -62083-4 0  9992
2 55468  43.0050 321.7095 0001383 262.1590  97.9096 15.02541462160905
STARLINK-5681           
1 55469U 23015W   26003.26346190  .00003019  00000+0  23842-3 0  9996
2 55469  43.0036 321.3766 0001437 290.5382  69.5307 15.02540538160919
STARLINK-5708           
1 55470U 23015X   26003.25568159 -.00000711  00000+0 -37595-4 0  9997
2 55470  43.0060 321.3162 0001299 261.7580  98.3115 15.02535961160915
STARLINK-5711           
1 55471U 23015Y   26003.25346054 -.00000903  00000+0 -51775-4 0  9995
2 55471  43.0074 321.2969 0001835 262.5425  97.5209 15.02540616160916
STARLINK-5705           
1 55472U 23015Z   26003.25273269  .00000625  00000+0  61323-4 0  9992
2 55472  43.0062 309.1496 0001414 269.8534  90.2146 15.02531905161055
STARLINK-5689           
1 55474U 23015AB  26003.28983513  .00000319  00000+0  38681-4 0  9998
2 55474  43.0062 334.5652 0001335 267.4874  92.5816 15.02531133160765
STARLINK-5650           
1 55475U 23015AC  26003.31217688 -.00000688  00000+0 -35864-4 0  9997
2 55475  43.0056 320.8773 0001524 248.9170 111.1510 15.02537742160923
STARLINK-5685           
1 55477U 23015AE  26003.18069717  .00001205  00000+0  10423-3 0  9999
2 55477  43.0050 309.4619 0000913 266.7470  93.3267 15.02543601161048
STARLINK-5691           
1 55478U 23015AF  26003.24606941  .00002584  00000+0  20633-3 0  9998
2 55478  43.0030 309.0984 0001108 264.3799  95.6917 15.02523177161057
STARLINK-5688           
1 55479U 23015AG  26003.18958117  .00001006  00000+0  89529-4 0  9995
2 55479  43.0015 309.5333 0001195 267.6129  92.4576 15.02537540161047
STARLINK-5690           
1 55480U 23015AH  26003.34295725 -.00016361  00000+0 -11964-2 0  9992
2 55480  43.0052 334.0157 0001749 262.1287  97.9357 15.02613427160772
STARLINK-5694           
1 55481U 23015AJ  26003.28538912  .00003380  00000+0  26510-3 0  9993
2 55481  43.0046 334.5328 0001275 271.3147  88.7550 15.02541976160763
STARLINK-5692           
1 55483U 23015AL  26003.27540098  .00000766  00000+0  71789-4 0  9996
2 55483  43.0067 334.4561 0001230 271.8087  88.2615 15.02538249160761
STARLINK-5696           
1 55484U 23015AM  26003.00061359 -.00000027  00000+0  13109-4 0  9999
2 55484  43.0039 335.8315 0001242 267.5897  92.4803 15.02534497160720
STARLINK-5695           
1 55485U 23015AN  26003.28206523  .00001263  00000+0  10854-3 0  9999
2 55485  43.0058 334.5027 0001479 266.5939  93.4734 15.02533792160761
STARLINK-5704           
1 55486U 23015AP  26003.26873953  .00000196  00000+0  29595-4 0  9992
2 55486  43.0070 334.3608 0001532 274.4191  85.6476 15.02535769160769
STARLINK-5701           
1 55487U 23015AQ  26003.28317489  .00000213  00000+0  30865-4 0  9994
2 55487  43.0036 334.5157 0000841 253.9621 106.1129 15.02533635160769
STARLINK-5706           
1 55488U 23015AR  26002.99283758 -.00001815  00000+0 -11930-3 0  9995
2 55488  43.0051 335.7688 0001164 258.6085 101.4627 15.02550254160727
STARLINK-5371           
1 55489U 23015AS  26003.27208058  .00005403  00000+0  41471-3 0  9996
2 55489  43.0058 334.4287 0001492 253.1527 106.9152 15.02539128160765
STARLINK-5373           
1 55490U 23015AT  26003.00394256  .00001929  00000+0  15783-3 0  9991
2 55490  43.0072 335.8480 0000776 231.7078 128.3695 15.02529922160727
STARLINK-5364           
1 55491U 23015AU  26003.19057328  .00000953  00000+0  85594-4 0  9992
2 55491  43.0037 308.6714 0001053 277.1773  82.8949 15.02536879161054
STARLINK-5013           
1 55492U 23015AV  26002.99617246 -.00000274  00000+0 -52454-5 0  9999
2 55492  43.0030 335.7946 0000868 267.6859  92.3884 15.02537220160726
STARLINK-5362           
1 55493U 23015AW  26002.99950488  .00000276  00000+0  35479-4 0  9995
2 55493  43.0069 335.8217 0001391 275.4286  84.6397 15.02535784160720
STARLINK-5344           
1 55494U 23015AX  26003.31635695 -.00000746  00000+0 -40136-4 0  9993
2 55494  43.0043 333.8984 0001016 275.1003  84.9723 15.02536254160774
STARLINK-5100           
1 55495U 23015AY  26003.24273902  .00001680  00000+0  13938-3 0  9990
2 55495  43.0043 309.0713 0001047 270.3258  89.7465 15.02534172161058
STARLINK-5363           
1 55497U 23015BA  26003.31524417  .00000758  00000+0  71186-4 0  9995
2 55497  43.0046 333.8866 0001195 272.8302  87.2404 15.02536034160771
STARLINK-5365           
1 55498U 23015BB  26003.30636541 -.00001234  00000+0 -76286-4 0  9995
2 55498  43.0088 333.8193 0001434 260.6995  99.3685 15.02543473160770
STARLINK-5366           
1 55499U 23015BC  26003.23322670  .00001165  00000+0  10126-3 0  9994
2 55499  43.0052 334.1304 0000921 280.3975  79.6763 15.02537804161519
STARLINK-5141           
1 55500U 23015BD  26003.31189574 -.00009767  00000+0 -70849-3 0  9996
2 55500  43.0044 333.8655 0001389 267.1014  92.9669 15.02560705160770
